NOAA 6
1 11416U 79057A   80003.44366214  .00000727  00000-0  33454-3 0   878
2 11416  98.7309  35.7226 0013335  92.0280 268.2428 14.22474848 27074
NOAA 6
1 11416U 79057A   80010.19623056  .00001049  00000-0  47830-3 0   891
2 11416  98.7308  42.4110 0013237  72.9891 287.2737 14.22490765 28033
